{
  "norad_id": 54135,
  "name": "ONEWEB-0517",
  "history": [
    {
      "epoch": "2026-03-28T21:54:01.537056Z",
      "apogee_km": 1186.8832528662124,
      "perigee_km": 1184.6558336673506,
      "latitude_deg": 6.147627166080943e-05,
      "longitude_deg": 166.13534331442935,
      "height_km": 1188.656616695481,
      "semi_major_axis_km": 7563.906543266781,
      "eccentricity": 0.00014724,
      "inclination_deg": 87.9201,
      "raan_deg": 320.9679,
      "arg_perigee_deg": 89.3769,
      "mean_anomaly_deg": 270.7533,
      "mean_motion_rev_day": 13.19725264
    },
    {
      "epoch": "2026-03-29T03:21:33.197184Z",
      "apogee_km": 1186.8886640646087,
      "perigee_km": 1184.643697600537,
      "latitude_deg": -7.308983540011399e-05,
      "longitude_deg": 83.98393656568965,
      "height_km": 1188.6593935363585,
      "semi_major_axis_km": 7563.903180832573,
      "eccentricity": 0.0001484,
      "inclination_deg": 87.9199,
      "raan_deg": 320.9226,
      "arg_perigee_deg": 89.6951,
      "mean_anomaly_deg": 270.4351,
      "mean_motion_rev_day": 13.19726144
    }
  ]
}